[{"OBJECT_NAME":"STARLINK-5085","OBJECT_ID":"2023-014B","EPOCH":"2026-03-09T08:54:14.088096","MEAN_MOTION":14.98332586,"ECCENTRICITY":0.00029635,"INCLINATION":70.0002,"RA_OF_ASC_NODE":45.1506,"ARG_OF_PERICENTER":265.8444,"MEAN_ANOMALY":94.2376,"EPHEMERIS_TYPE":0,"CLASSIFICATION_TYPE":"U","NORAD_CAT_ID":55392,"ELEMENT_SET_NO":999,"REV_AT_EPOCH":17250,"BSTAR":0.00011549032,"MEAN_MOTION_DOT":1.285e-5,"MEAN_MOTION_DDOT":0},{"OBJECT_NAME":"ICEYE-X33","OBJECT_ID":"2024-149CJ","EPOCH":"2026-03-09T17:04:13.303776","MEAN_MOTION":15.0113344,"ECCENTRICITY":0.00060627,"INCLINATION":97.7033,"RA_OF_ASC_NODE":148.5516,"ARG_OF_PERICENTER":122.8099,"MEAN_ANOMALY":237.371,"EPHEMERIS_TYPE":0,"CLASSIFICATION_TYPE":"U","NORAD_CAT_ID":60548,"ELEMENT_SET_NO":999,"REV_AT_EPOCH":8528,"BSTAR":0.00045891369,"MEAN_MOTION_DOT":5.822e-5,"MEAN_MOTION_DDOT":0}]
